[{"OBJECT_NAME":"STARLINK-33832","OBJECT_ID":"2025-083D","EPOCH":"2025-09-25T03:38:25.945152","MEAN_MOTION":15.27606148,"ECCENTRICITY":0.000137,"INCLINATION":42.9988,"RA_OF_ASC_NODE":219.766,"ARG_OF_PERICENTER":254.8879,"MEAN_ANOMALY":105.1821,"EPHEMERIS_TYPE":0,"CLASSIFICATION_TYPE":"U","NORAD_CAT_ID":63637,"ELEMENT_SET_NO":999,"REV_AT_EPOCH":2475,"BSTAR":0.0019969069,"MEAN_MOTION_DOT":0.00055144,"MEAN_MOTION_DDOT":0},{"OBJECT_NAME":"STARLINK-33856","OBJECT_ID":"2025-083E","EPOCH":"2025-09-26T04:59:44.451168","MEAN_MOTION":15.27632485,"ECCENTRICITY":3.674e-5,"INCLINATION":42.998,"RA_OF_ASC_NODE":213.9251,"ARG_OF_PERICENTER":194.8504,"MEAN_ANOMALY":165.2337,"EPHEMERIS_TYPE":0,"CLASSIFICATION_TYPE":"U","NORAD_CAT_ID":63638,"ELEMENT_SET_NO":999,"REV_AT_EPOCH":2491,"BSTAR":0.0026239245,"MEAN_MOTION_DOT":0.00072774,"MEAN_MOTION_DDOT":0},{"OBJECT_NAME":"STARLINK-33876","OBJECT_ID":"2025-083F","EPOCH":"2025-09-26T05:21:56.333088","MEAN_MOTION":15.27617281,"ECCENTRICITY":0.00012312,"INCLINATION":43.0007,"RA_OF_ASC_NODE":214.0419,"ARG_OF_PERICENTER":266.6659,"MEAN_ANOMALY":93.4052,"EPHEMERIS_TYPE":0,"CLASSIFICATION_TYPE":"U","NORAD_CAT_ID":63639,"ELEMENT_SET_NO":999,"REV_AT_EPOCH":2491,"BSTAR":0.002421962,"MEAN_MOTION_DOT":0.00067069,"MEAN_MOTION_DDOT":0},{"OBJECT_NAME":"STARLINK-33859","OBJECT_ID":"2025-083G","EPOCH":"2025-09-26T20:08:12.438240","MEAN_MOTION":15.27615655,"ECCENTRICITY":7.927e-5,"INCLINATION":43.003,"RA_OF_ASC_NODE":210.9404,"ARG_OF_PERICENTER":260.9417,"MEAN_ANOMALY":99.1345,"EPHEMERIS_TYPE":0,"CLASSIFICATION_TYPE":"U","NORAD_CAT_ID":63640,"ELEMENT_SET_NO":999,"REV_AT_EPOCH":2500,"BSTAR":0.0020339466,"MEAN_MOTION_DOT":0.00056196,"MEAN_MOTION_DDOT":0},{"OBJECT_NAME":"STARLINK-33826","OBJECT_ID":"2025-083H","EPOCH":"2025-09-26T08:11:46.814784","MEAN_MOTION":15.27587782,"ECCENTRICITY":0.00018256,"INCLINATION":42.999,"RA_OF_ASC_NODE":213.2138,"ARG_OF_PERICENTER":249.4472,"MEAN_ANOMALY":110.6184,"EPHEMERIS_TYPE":0,"CLASSIFICATION_TYPE":"U","NORAD_CAT_ID":63641,"ELEMENT_SET_NO":999,"REV_AT_EPOCH":2493,"BSTAR":0.0025890237,"MEAN_MOTION_DOT":0.00071695,"MEAN_MOTION_DDOT":0},{"OBJECT_NAME":"STARLINK-33836","OBJECT_ID":"2025-083J","EPOCH":"2025-09-26T21:29:24.781344","MEAN_MOTION":15.27573649,"ECCENTRICITY":0.00014736,"INCLINATION":43.0034,"RA_OF_ASC_NODE":210.4924,"ARG_OF_PERICENTER":273.5792,"MEAN_ANOMALY":86.4891,"EPHEMERIS_TYPE":0,"CLASSIFICATION_TYPE":"U","NORAD_CAT_ID":63642,"ELEMENT_SET_NO":999,"REV_AT_EPOCH":2501,"BSTAR":0.0017724931,"MEAN_MOTION_DOT":0.00048827,"MEAN_MOTION_DDOT":0},{"OBJECT_NAME":"STARLINK-33558","OBJECT_ID":"2025-083K","EPOCH":"2025-09-26T20:32:03.027840","MEAN_MOTION":15.2756587,"ECCENTRICITY":0.00017691,"INCLINATION":42.9998,"RA_OF_ASC_NODE":210.1917,"ARG_OF_PERICENTER":285.5432,"MEAN_ANOMALY":74.5225,"EPHEMERIS_TYPE":0,"CLASSIFICATION_TYPE":"U","NORAD_CAT_ID":63643,"ELEMENT_SET_NO":999,"REV_AT_EPOCH":2501,"BSTAR":0.0018555954,"MEAN_MOTION_DOT":0.00051133,"MEAN_MOTION_DDOT":0},{"OBJECT_NAME":"STARLINK-33852","OBJECT_ID":"2025-083L","EPOCH":"2025-09-26T21:27:33.765984","MEAN_MOTION":15.27564867,"ECCENTRICITY":0.00017692,"INCLINATION":43.0045,"RA_OF_ASC_NODE":210.4826,"ARG_OF_PERICENTER":277.8558,"MEAN_ANOMALY":82.2093,"EPHEMERIS_TYPE":0,"CLASSIFICATION_TYPE":"U","NORAD_CAT_ID":63644,"ELEMENT_SET_NO":999,"REV_AT_EPOCH":2504,"BSTAR":0.001641005,"MEAN_MOTION_DOT":0.00045151,"MEAN_MOTION_DDOT":0},{"OBJECT_NAME":"STARLINK-33835","OBJECT_ID":"2025-083M","EPOCH":"2025-09-26T21:09:03.481920","MEAN_MOTION":15.2762207,"ECCENTRICITY":0.00019203,"INCLINATION":43.0016,"RA_OF_ASC_NODE":210.3818,"ARG_OF_PERICENTER":58.8408,"MEAN_ANOMALY":301.2632,"EPHEMERIS_TYPE":0,"CLASSIFICATION_TYPE":"U","NORAD_CAT_ID":63645,"ELEMENT_SET_NO":999,"REV_AT_EPOCH":2504,"BSTAR":0.0015259386,"MEAN_MOTION_DOT":0.00042023,"MEAN_MOTION_DDOT":0},{"OBJECT_NAME":"STARLINK-33661","OBJECT_ID":"2025-083N","EPOCH":"2025-09-26T20:48:42.090048","MEAN_MOTION":15.27578914,"ECCENTRICITY":0.00010386,"INCLINATION":42.9967,"RA_OF_ASC_NODE":210.2703,"ARG_OF_PERICENTER":303.2606,"MEAN_ANOMALY":56.8146,"EPHEMERIS_TYPE":0,"CLASSIFICATION_TYPE":"U","NORAD_CAT_ID":63646,"ELEMENT_SET_NO":999,"REV_AT_EPOCH":2504,"BSTAR":0.0016347601,"MEAN_MOTION_DOT":0.00044996,"MEAN_MOTION_DDOT":0},{"OBJECT_NAME":"STARLINK-33729","OBJECT_ID":"2025-083P","EPOCH":"2025-09-26T05:55:14.073024","MEAN_MOTION":15.27640574,"ECCENTRICITY":0.00018047,"INCLINATION":43.0046,"RA_OF_ASC_NODE":214.2278,"ARG_OF_PERICENTER":257.068,"MEAN_ANOMALY":102.997,"EPHEMERIS_TYPE":0,"CLASSIFICATION_TYPE":"U","NORAD_CAT_ID":63647,"ELEMENT_SET_NO":999,"REV_AT_EPOCH":2491,"BSTAR":0.0025034802,"MEAN_MOTION_DOT":0.00069408,"MEAN_MOTION_DDOT":0},{"OBJECT_NAME":"STARLINK-33717","OBJECT_ID":"2025-083Q","EPOCH":"2025-09-26T20:35:44.964384","MEAN_MOTION":15.27598593,"ECCENTRICITY":9.543e-5,"INCLINATION":42.9951,"RA_OF_ASC_NODE":210.2119,"ARG_OF_PERICENTER":65.2821,"MEAN_ANOMALY":294.813,"EPHEMERIS_TYPE":0,"CLASSIFICATION_TYPE":"U","NORAD_CAT_ID":63648,"ELEMENT_SET_NO":999,"REV_AT_EPOCH":2501,"BSTAR":0.0012819544,"MEAN_MOTION_DOT":0.00035203,"MEAN_MOTION_DDOT":0},{"OBJECT_NAME":"STARLINK-33684","OBJECT_ID":"2025-083R","EPOCH":"2025-09-26T20:24:38.854080","MEAN_MOTION":15.2760008,"ECCENTRICITY":0.00011467,"INCLINATION":42.9968,"RA_OF_ASC_NODE":210.1483,"ARG_OF_PERICENTER":150.2143,"MEAN_ANOMALY":209.8774,"EPHEMERIS_TYPE":0,"CLASSIFICATION_TYPE":"U","NORAD_CAT_ID":63649,"ELEMENT_SET_NO":999,"REV_AT_EPOCH":2501,"BSTAR":0.0011732735,"MEAN_MOTION_DOT":0.00032185,"MEAN_MOTION_DDOT":0},{"OBJECT_NAME":"STARLINK-33704","OBJECT_ID":"2025-083S","EPOCH":"2025-09-26T20:56:06.813312","MEAN_MOTION":15.27541791,"ECCENTRICITY":0.00011697,"INCLINATION":43.0007,"RA_OF_ASC_NODE":210.314,"ARG_OF_PERICENTER":288.1912,"MEAN_ANOMALY":71.8812,"EPHEMERIS_TYPE":0,"CLASSIFICATION_TYPE":"U","NORAD_CAT_ID":63650,"ELEMENT_SET_NO":999,"REV_AT_EPOCH":2501,"BSTAR":0.0017684512,"MEAN_MOTION_DOT":0.00048666,"MEAN_MOTION_DDOT":0},{"OBJECT_NAME":"STARLINK-33705","OBJECT_ID":"2025-083T","EPOCH":"2025-09-26T20:50:33.146016","MEAN_MOTION":15.27580317,"ECCENTRICITY":0.00011438,"INCLINATION":42.9975,"RA_OF_ASC_NODE":210.2779,"ARG_OF_PERICENTER":295.7996,"MEAN_ANOMALY":64.2737,"EPHEMERIS_TYPE":0,"CLASSIFICATION_TYPE":"U","NORAD_CAT_ID":63651,"ELEMENT_SET_NO":999,"REV_AT_EPOCH":2504,"BSTAR":0.0017969478,"MEAN_MOTION_DOT":0.00049519,"MEAN_MOTION_DDOT":0},{"OBJECT_NAME":"STARLINK-33663","OBJECT_ID":"2025-083U","EPOCH":"2025-09-25T13:16:19.360704","MEAN_MOTION":15.27592761,"ECCENTRICITY":0.00010962,"INCLINATION":42.9965,"RA_OF_ASC_NODE":217.6017,"ARG_OF_PERICENTER":248.9994,"MEAN_ANOMALY":111.074,"EPHEMERIS_TYPE":0,"CLASSIFICATION_TYPE":"U","NORAD_CAT_ID":63652,"ELEMENT_SET_NO":999,"REV_AT_EPOCH":2481,"BSTAR":0.0019051494,"MEAN_MOTION_DOT":0.00052558,"MEAN_MOTION_DDOT":0}]
