STARLINK-33832          
1 63637U 25083D   25268.15168918  .00055144  00000+0  19969-2 0  9999
2 63637  42.9988 219.7660 0001370 254.8879 105.1821 15.27606148 24758
STARLINK-33856          
1 63638U 25083E   25269.20815337  .00072774  00000+0  26239-2 0  9997
2 63638  42.9980 213.9251 0000367 194.8504 165.2337 15.27632485 24916
STARLINK-33876          
1 63639U 25083F   25269.22356867  .00067069  00000+0  24220-2 0  9997
2 63639  43.0007 214.0419 0001231 266.6659  93.4052 15.27617281 24910
STARLINK-33859          
1 63640U 25083G   25269.83903285  .00056196  00000+0  20339-2 0  9994
2 63640  43.0030 210.9404 0000792 260.9417  99.1345 15.27615655 25009
STARLINK-33826          
1 63641U 25083H   25269.34151406  .00071695  00000+0  25890-2 0  9999
2 63641  42.9990 213.2138 0001825 249.4472 110.6184 15.27587782 24934
STARLINK-33836          
1 63642U 25083J   25269.89542571  .00048827  00000+0  17725-2 0  9996
2 63642  43.0034 210.4924 0001473 273.5792  86.4891 15.27573649 25012
STARLINK-33558          
1 63643U 25083K   25269.85559060  .00051133  00000+0  18556-2 0  9991
2 63643  42.9998 210.1917 0001769 285.5432  74.5225 15.27565870 25017
STARLINK-33852          
1 63644U 25083L   25269.89414081  .00045151  00000+0  16410-2 0  9999
2 63644  43.0045 210.4826 0001769 277.8558  82.2093 15.27564867 25045
STARLINK-33835          
1 63645U 25083M   25269.88129030  .00042023  00000+0  15259-2 0  9991
2 63645  43.0016 210.3818 0001920  58.8408 301.2632 15.27622070 25048
STARLINK-33661          
1 63646U 25083N   25269.86715382  .00044996  00000+0  16348-2 0  9992
2 63646  42.9967 210.2703 0001038 303.2606  56.8146 15.27578914 25041
STARLINK-33729          
1 63647U 25083P   25269.24669066  .00069408  00000+0  25035-2 0  9990
2 63647  43.0046 214.2278 0001804 257.0680 102.9970 15.27640574 24917
STARLINK-33717          
1 63648U 25083Q   25269.85815931  .00035203  00000+0  12820-2 0  9996
2 63648  42.9951 210.2119 0000954  65.2821 294.8130 15.27598593 25016
STARLINK-33684          
1 63649U 25083R   25269.85044970  .00032185  00000+0  11733-2 0  9992
2 63649  42.9968 210.1483 0001146 150.2143 209.8774 15.27600080 25019
STARLINK-33704          
1 63650U 25083S   25269.87230108  .00048666  00000+0  17685-2 0  9999
2 63650  43.0007 210.3140 0001169 288.1912  71.8812 15.27541791 25012
STARLINK-33705          
1 63651U 25083T   25269.86843919  .00049519  00000+0  17969-2 0  9992
2 63651  42.9975 210.2779 0001143 295.7996  64.2737 15.27580317 25042
STARLINK-33663          
1 63652U 25083U   25268.55300186  .00052558  00000+0  19051-2 0  9993
2 63652  42.9965 217.6017 0001096 248.9994 111.0740 15.27592761 24818
